NORAD_CAT_ID,OBJECT_NAME,OBJECT_TYPE,EPOCH,MEAN_MOTION,ECCENTRICITY,INCLINATION,RA_OF_ASC_NODE,ARG_OF_PERICENTER,MEAN_ANOMALY,BSTAR,MEAN_MOTION_DOT,MEAN_MOTION_DDOT,TLE_LINE0,TLE_LINE1,TLE_LINE2,SEMIMAJOR_AXIS,PERIOD,APOGEE,PERIGEE,DECAYED
52619.0,STARLINK-3741,PAYLOAD,2022-09-30 02:26:45,15.08838624,0.0001774999999999,53.2177,150.1671,52.556,307.5593,-2.5536e-05,-6.94e-06,0.0,0 STARLINK-3741,1 52619U 22052X   22273.10191718 -.00000694  00000-0 -25536-4 0  9994,2 52619  53.2177 150.1671 0001775  52.5560 307.5593 15.08838624 21666,6917.885,95.438,540.9780000000002,538.5219999999998,0.0
52619.0,STARLINK-3741,PAYLOAD,2022-09-30 08:48:17,15.0884042,0.0001621999999999,53.2176,148.9776,57.3468,302.7681,3.5948e-05,2.84e-06,0.0,0 STARLINK-3741,1 52619U 22052X   22273.36687376  .00000284  00000-0  35948-4 0  9993,2 52619  53.2176 148.9776 0001622  57.3468 302.7681 15.08840420 21322,6917.879,95.438,540.866,538.622,0.0
52619.0,STARLINK-3741,PAYLOAD,2022-10-01 08:39:04,15.08839399,0.000157,53.2177,144.5173,56.9381,303.1761,0.00012393,1.685e-05,0.0,0 STARLINK-3741,1 52619U 22052X   22274.36046976  .00001685  00000-0  12393-3 0  9993,2 52619  53.2177 144.5173 0001570  56.9381 303.1761 15.08839399 21852,6917.882,95.438,540.8330000000002,538.661,0.0
52619.0,STARLINK-3741,PAYLOAD,2022-10-01 21:22:09,15.08839063,0.0001672,53.2177,142.1385,58.8403,301.2753,5.5058e-05,5.88e-06,0.0,0 STARLINK-3741,1 52619U 22052X   22274.89039246  .00000588  00000-0  55058-4 0  9990,2 52619  53.2177 142.1385 0001672  58.8403 301.2753 15.08839063 21555,6917.8830000000025,95.438,540.905,538.592,0.0
52619.0,STARLINK-3741,PAYLOAD,2022-10-02 08:29:52,15.08830369,0.000184,53.2174,140.05700000000002,56.1295,303.9872,-1.6623e-05,-5.53e-06,0.0,0 STARLINK-3741,1 52619U 22052X   22275.35408174 -.00000553  00000-0 -16623-4 0  9991,2 52619  53.2174 140.0570 0001840  56.1295 303.9872 15.08830369 22004,6917.91,95.438,541.048,538.502,0.0
52619.0,STARLINK-3741,PAYLOAD,2022-10-02 21:12:57,15.08842306,0.0001662,53.2177,137.6783,58.5182,301.5972,-6.8485000000000014e-06,-3.97e-06,0.0,0 STARLINK-3741,1 52619U 22052X   22275.88399424 -.00000397  00000-0 -68485-5 0  9996,2 52619  53.2177 137.6783 0001662  58.5182 301.5972 15.08842306 21703,6917.873000000001,95.437,540.888,538.589,0.0
52619.0,STARLINK-3741,PAYLOAD,2022-10-03 00:23:43,15.08844213,0.0001704,53.2175,137.0838,57.7043,302.4114,5.5754e-05,5.99e-06,0.0,0 STARLINK-3741,1 52619U 22052X   22276.01647097  .00000599  00000-0  55754-4 0  9990,2 52619  53.2175 137.0838 0001704  57.7043 302.4114 15.08844213 22102,6917.868,95.437,540.911,538.554,0.0
52619.0,STARLINK-3741,PAYLOAD,2022-10-03 08:20:38,15.08845419,0.0001713,53.2175,135.597,57.9758,302.1401,6.6294e-05,7.67e-06,0.0,0 STARLINK-3741,1 52619U 22052X   22276.34766982  .00000767  00000-0  66294-4 0  9999,2 52619  53.2175 135.5970 0001713  57.9758 302.1401 15.08845419 21774,6917.864000000001,95.437,540.914,538.544,0.0
52619.0,STARLINK-3741,PAYLOAD,2022-10-03 21:03:43,15.088437699999998,0.0001706999999999,53.2173,133.2179,58.3652,301.7506,5.6846e-05,6.17e-06,0.0,0 STARLINK-3741,1 52619U 22052X   22276.87758826  .00000617  00000-0  56846-4 0  9991,2 52619  53.2173 133.2179 0001707  58.3652 301.7506 15.08843770 21857,6917.869000000002,95.437,540.915,538.553,0.0
52619.0,STARLINK-3741,PAYLOAD,2022-10-04 00:14:30,15.08840281,0.0001689,53.2173,132.6233,56.9513,303.1641,3.4114e-05,2.55e-06,0.0,0 STARLINK-3741,1 52619U 22052X   22277.01007110  .00000255  00000-0  34114-4 0  9993,2 52619  53.2173 132.6233 0001689  56.9513 303.1641 15.08840281 21872,6917.88,95.438,540.913,538.576,0.0
52619.0,STARLINK-3741,PAYLOAD,2022-10-04 19:19:07,15.08837491,0.0001618,53.2181,129.055,58.0177,302.0972,5.9259e-05,6.55e-06,0.0,0 STARLINK-3741,1 52619U 22052X   22277.80495280  .00000655  00000-0  59259-4 0  9990,2 52619  53.2181 129.0550 0001618  58.0177 302.0972 15.08837491 21991,6917.888000000001,95.438,540.872,538.634,0.0
52619.0,STARLINK-3741,PAYLOAD,2022-10-05 00:05:17,15.08833308,0.0001695,53.2192,128.1656,44.3793,315.7335,-1.8988e-05,-5.9e-06,0.0,0 STARLINK-3741,1 52619U 22052X   22278.00367818 -.00000590  00000-0 -18988-4 0  9992,2 52619  53.2192 128.1656 0001695  44.3793 315.7335 15.08833308 22401,6917.901,95.438,540.938,538.5930000000002,0.0
52619.0,STARLINK-3741,PAYLOAD,2022-10-05 20:45:18,15.08828843,0.0001375,53.2162,124.2979,53.4997,306.6121,-4.4696e-05,-9.99e-06,0.0,0 STARLINK-3741,1 52619U 22052X   22278.86480270 -.00000999  00000-0 -44696-4 0  9992,2 52619  53.2162 124.2979 0001375  53.4997 306.6121 15.08828843 22157,6917.9140000000025,95.438,540.731,538.828,0.0
52619.0,STARLINK-3741,PAYLOAD,2022-10-06 06:17:37,15.08835395,0.0001226,53.216,122.5138,50.2806,309.8294,-5.5727e-05,-1.175e-05,0.0,0 STARLINK-3741,1 52619U 22052X   22279.26224089 -.00001175  00000-0 -55727-4 0  9995,2 52619  53.2160 122.5138 0001226  50.2806 309.8294 15.08835395 22215,6917.894,95.438,540.6080000000002,538.911,0.0
52619.0,STARLINK-3741,PAYLOAD,2022-10-06 20:36:05,15.08828495,0.0001585999999999,53.2166,119.8332,51.6291,308.4843,0.00019536,2.822e-05,0.0,0 STARLINK-3741,1 52619U 22052X   22279.85840039  .00002822  00000-0  19536-3 0  9994,2 52619  53.2166 119.8332 0001586  51.6291 308.4843 15.08828495 22306,6917.916,95.438,540.878,538.683,0.0
52619.0,STARLINK-3741,PAYLOAD,2022-10-07 06:08:24,15.08832647,0.0001512,53.2169,118.0516,47.5028,312.6091,0.00012991,1.7800000000000002e-05,0.0,0 STARLINK-3741,1 52619U 22052X   22280.25584249  .00001780  00000-0  12991-3 0  9998,2 52619  53.2169 118.0516 0001512  47.5028 312.6091 15.08832647 22367,6917.903,95.438,540.814,538.722,0.0
52619.0,STARLINK-3741,PAYLOAD,2022-10-07 20:26:53,15.08832644,0.0001374,53.2171,115.3748,47.6821,312.4288,0.00010554,1.392e-05,0.0,0 STARLINK-3741,1 52619U 22052X   22280.85200394  .00001392  00000-0  10554-3 0  9992,2 52619  53.2171 115.3748 0001374  47.6821 312.4288 15.08832644 22458,6917.903,95.438,540.7180000000002,538.817,0.0
52619.0,STARLINK-3741,PAYLOAD,2022-10-07 23:37:39,15.08832626,0.0001453,53.2171,114.78,49.6804,310.4315,0.00010753,1.423e-05,0.0,0 STARLINK-3741,1 52619U 22052X   22280.98448454  .00001423  00000-0  10753-3 0  9993,2 52619  53.2171 114.7800 0001453  49.6804 310.4315 15.08832626 22854,6917.903,95.438,540.773,538.763,0.0
52619.0,STARLINK-3741,PAYLOAD,2022-10-08 05:59:11,15.08838729,0.0001438,53.2171,113.5908,45.0379,315.073,0.00012237,1.66e-05,0.0,0 STARLINK-3741,1 52619U 22052X   22281.24944081  .00001660  00000-0  12237-3 0  9992,2 52619  53.2171 113.5908 0001438  45.0379 315.0730 15.08838729 22515,6917.884,95.438,540.744,538.754,0.0
52619.0,STARLINK-3741,PAYLOAD,2022-10-08 20:17:40,15.08842418,0.0001523,53.2176,110.9151,60.1927,299.9217,-1.9543e-05,-5.99e-06,0.0,0 STARLINK-3741,1 52619U 22052X   22281.84560516 -.00000599  00000-0 -19543-4 0  9995,2 52619  53.2176 110.9151 0001523  60.1927 299.9217 15.08842418 22603,6917.873000000001,95.437,540.7919999999998,538.684,0.0
52619.0,STARLINK-3741,PAYLOAD,2022-10-09 05:49:58,15.08842615,0.0001608,53.2178,109.1306,52.0176,308.0961,0.00011083,1.476e-05,0.0,0 STARLINK-3741,1 52619U 22052X   22282.24304067  .00001476  00000-0  11083-3 0  9990,2 52619  53.2178 109.1306 0001608  52.0176 308.0961 15.08842615 23043,6917.871999999999,95.437,540.85,538.625,0.0
52619.0,STARLINK-3741,PAYLOAD,2022-10-09 12:11:31,15.08843998,0.0001464,53.2179,107.9408,48.6768,311.435,7.2027e-05,8.59e-06,0.0,0 STARLINK-3741,1 52619U 22052X   22282.50799972  .00000859  00000-0  72027-4 0  9992,2 52619  53.2179 107.9408 0001464  48.6768 311.4350 15.08843998 22708,6917.868,95.437,540.746,538.72,0.0
52619.0,STARLINK-3741,PAYLOAD,2022-10-09 18:33:04,15.08835907,0.0001636999999999,53.2185,106.7529,57.1034,303.0115,5.1514e-05,5.32e-06,0.0,0 STARLINK-3741,1 52619U 22052X   22282.77296648  .00000532  00000-0  51514-4 0  9999,2 52619  53.2185 106.7529 0001637  57.1034 303.0115 15.08835907 23123,6917.893,95.438,540.89,538.625,0.0
52619.0,STARLINK-3741,PAYLOAD,2022-10-09 20:08:27,15.08838565,0.0001474,53.2177,106.454,55.3462,304.7669,5.5247e-05,5.91e-06,0.0,0 STARLINK-3741,1 52619U 22052X   22282.83920419  .00000591  00000-0  55247-4 0  9998,2 52619  53.2177 106.4540 0001474  55.3462 304.7669 15.08838565 22751,6917.885,95.438,540.769,538.73,0.0
52619.0,STARLINK-3741,PAYLOAD,2022-10-10 00:54:36,15.08844299,0.0001503,53.2175,105.5618,53.3034,306.8096,0.00010539,1.39e-05,0.0,0 STARLINK-3741,1 52619U 22052X   22283.03791892  .00001390  00000-0  10539-3 0  9994,2 52619  53.2175 105.5618 0001503  53.3034 306.8096 15.08844299 23165,6917.8669999999975,95.437,540.7719999999998,538.692,0.0
52619.0,STARLINK-3741,PAYLOAD,2022-10-10 12:02:18,15.08839408,0.0001537,53.2176,103.4806,53.9309,306.1825,1.4269e-05,-6.1e-07,0.0,0 STARLINK-3741,1 52619U 22052X   22283.50160473 -.00000061  00000-0  14269-4 0  9991,2 52619  53.2176 103.4806 0001537  53.9309 306.1825 15.08839408 22854,6917.882,95.438,540.81,538.684,0.0
52619.0,STARLINK-3741,PAYLOAD,2022-10-10 18:23:51,15.08840375,0.0001709,53.218,102.2921,52.5632,307.5515,9.7773e-05,1.268e-05,0.0,0 STARLINK-3741,1 52619U 22052X   22283.76656318  .00001268  00000-0  97773-4 0  9997,2 52619  53.2180 102.2921 0001709  52.5632 307.5515 15.08840375 23272,6917.879,95.438,540.927,538.562,0.0
52619.0,STARLINK-3741,PAYLOAD,2022-10-10 19:59:13,15.08845227,0.0001721999999999,53.218,101.9946,51.8445,308.2702,8.4224e-05,1.053e-05,0.0,0 STARLINK-3741,1 52619U 22052X   22283.83280033  .00001053  00000-0  84224-4 0  9991,2 52619  53.2180 101.9946 0001722  51.8445 308.2702 15.08845227 22900,6917.864000000001,95.437,540.9209999999998,538.538,0.0
52619.0,STARLINK-3741,PAYLOAD,2022-10-11 11:53:04,15.08847363,0.0001827,53.2186,99.0218,57.3314,302.7854,0.00013473,1.857e-05,0.0,0 STARLINK-3741,1 52619U 22052X   22284.49519538  .00001857  00000-0  13473-3 0  9998,2 52619  53.2186  99.0218 0001827  57.3314 302.7854 15.08847363 23380,6917.858,95.437,540.987,538.4590000000002,0.0
